ONEWEB-0709             
1 55172U 23004AJ  25309.73109468 -.00000441  00000+0 -12809-2 0  9998
2 55172  87.8850  65.5867 0002451  91.4014 268.7395 13.11413975136584
ONEWEB-0710             
1 55173U 23004AK  25309.72363633  .00000041  00000+0  72274-4 0  9992
2 55173  87.9128  50.3094 0001554  94.6436 265.4873 13.17649646138156
ONEWEB-0711             
1 55174U 23004AL  25309.77857688  .00000531  00000+0  14629-2 0  9998
2 55174  87.8854  65.5481 0000988  77.6386 282.4853 13.11415166136556
ONEWEB-0713             
1 55175U 23004AM  25309.72092565 -.00000202  00000+0 -60463-3 0  9994
2 55175  87.8849  65.5638 0001480  89.3366 270.7932 13.11416350136533
ONEWEB-0715             
1 55176U 23004AN  25309.79214434  .00000186  00000+0  48961-3 0  9991
2 55176  87.8854  65.5496 0002081  83.3354 276.8011 13.11416158136587
ONEWEB-0716             
1 55177U 23004AP  25309.71688464  .00000019  00000+0  14544-4 0  9998
2 55177  87.9126  50.3104 0001831 107.5897 252.5435 13.17649157138151
ONEWEB-0717             
1 55178U 23004AQ  25309.70000889  .00000000  00000+0 -33716-4 0  9990
2 55178  87.9135  50.2816 0001309  78.2315 281.8964 13.17650031138201
ONEWEB-0719             
1 55179U 23004AR  25309.71013216  .00000047  00000+0  88238-4 0  9999
2 55179  87.9135  50.2619 0001621 108.9516 251.1792 13.17650625138156
ONEWEB-0530             
1 55796U 23029A   25309.98671709  .00000156  00000+0  35183-3 0  9998
2 55796  87.9184 318.9999 0001358  83.8187 276.3101 13.20771367131687
ONEWEB-0534             
1 55797U 23029B   25309.97409352  .00000166  00000+0  37551-3 0  9993
2 55797  87.9188 319.0035 0001902  95.5238 264.6113 13.20771449131681
ONEWEB-0556             
1 55798U 23029C   25309.98040248  .00000045  00000+0  78616-4 0  9994
2 55798  87.9185 319.0012 0001412 111.7916 248.3368 13.20771120131681
ONEWEB-0562             
1 55799U 23029D   25309.96776341  .00000127  00000+0  28150-3 0  9991
2 55799  87.9176 318.9873 0000906  95.4234 264.7003 13.20773910131680
ONEWEB-0563             
1 55800U 23029E   25309.96146377  .00000070  00000+0  14021-3 0  9993
2 55800  87.9184 319.0144 0001931 100.4441 259.6910 13.20771552131670
ONEWEB-0564             
1 55801U 23029F   25309.50061134  .00000045  00000+0  78743-4 0  9995
2 55801  87.9182 319.0842 0001461  89.6744 270.4557 13.20771724131620
ONEWEB-0638             
1 55802U 23029G   25309.98736869  .00000272  00000+0  69955-3 0  9998
2 55802  87.8998 334.2380 0001516 106.9564 253.1732 13.14501301130071
ONEWEB-0639             
1 55803U 23029H   25309.52401879  .00000070  00000+0  14273-3 0  9998
2 55803  87.9230 349.4879 0002901 108.6399 251.5049 13.19725854129401
ONEWEB-0640             
1 55804U 23029J   25309.46404960 -.00000002  00000+0 -40170-4 0  9999
2 55804  87.9004 334.3277 0001815 119.6385 240.4926 13.14504522130029
ONEWEB-0641             
1 55805U 23029K   25309.36763886  .00000174  00000+0  40149-3 0  9997
2 55805  87.9239 349.4955 0002083  99.0278 261.1091 13.19727082129394
ONEWEB-0642             
1 55806U 23029L   25309.36290397  .00000081  00000+0  16966-3 0  9997
2 55806  87.9223 349.5233 0002752 101.4231 258.7211 13.19726100129383
ONEWEB-0643             
1 55807U 23029M   25309.73838625  .00000045  00000+0  87048-4 0  9991
2 55807  87.9000 334.2582 0002584  92.5251 267.6175 13.14505025130038
ONEWEB-0644             
1 55808U 23029N   25309.58561326 -.00000008  00000+0 -51879-4 0  9990
2 55808  87.9223 349.4881 0002372  99.7094 260.4307 13.19725683129412
ONEWEB-0645             
1 55809U 23029P   25309.44299978  .00000069  00000+0  14271-3 0  9996
2 55809  87.9222 349.5057 0002218 109.9501 250.1870 13.18131430129392
ONEWEB-0646             
1 55810U 23029Q   25309.54927912  .00000090  00000+0  19360-3 0  9993
2 55810  87.9226 349.4794 0002201  97.7684 262.3699 13.19722880129393
ONEWEB-0648             
1 55811U 23029R   25309.47833375 -.00000128  00000+0 -37982-3 0  9999
2 55811  87.8997 334.2726 0002632 110.6843 249.4569 13.14502295130008
ONEWEB-0649             
1 55812U 23029S   25309.57456027  .00000023  00000+0  24779-4 0  9999
2 55812  87.9242 349.4694 0002314 105.0640 255.0749 13.19725944129436
ONEWEB-0650             
1 55813U 23029T   25309.56981359 -.00000019  00000+0 -80274-4 0  9999
2 55813  87.9225 349.4785 0002094  98.5314 261.6056 13.19726733129406
ONEWEB-0652             
1 55814U 23029U   25309.45930033  .00000085  00000+0  19489-3 0  9991
2 55814  87.9003 334.2974 0001728  90.6886 269.4442 13.14504028129976
ONEWEB-0653             
1 55815U 23029V   25309.51956807  .00001389  00000+0  37114-2 0  9998
2 55815  87.8993 334.2749 0001662  97.9051 262.2268 13.14511413130015
ONEWEB-0654             
1 55816U 23029W   25309.43867951  .00000150  00000+0  36976-3 0  9992
2 55816  87.9001 334.2903 0001484  88.9501 271.1799 13.14504693130022
ONEWEB-0656             
1 55817U 23029X   25309.49429407  .00000032  00000+0  46802-4 0  9998
2 55817  87.9188 319.0390 0001436  83.2044 276.9253 13.20772416131629
ONEWEB-0657             
1 55818U 23029Y   25309.56507401  .00000054  00000+0  10206-3 0  9990
2 55818  87.9218 349.4821 0001929  73.0778 287.0566 13.19723497129415
ONEWEB-0658             
1 55819U 23029Z   25309.56033221 -.00001867  00000+0 -46949-2 0  9992
2 55819  87.9241 349.4299 0002304  99.0529 261.0865 13.19736185129424
ONEWEB-0660             
1 55820U 23029AA  25309.49259190 -.00000359  00000+0 -10021-2 0  9998
2 55820  87.9008 334.2556 0001909 104.8185 255.3156 13.14502414130015
ONEWEB-0661             
1 55821U 23029AB  25309.98420832  .00000134  00000+0  32765-3 0  9995
2 55821  87.8996 334.2267 0001817 105.4856 254.6474 13.14501388130069
ONEWEB-0662             
1 55822U 23029AC  25309.48626363 -.00000137  00000+0 -40475-3 0  9990
2 55822  87.9005 334.3315 0001977 104.0370 256.0980 13.14502097130044
ONEWEB-0663             
1 55823U 23029AD  25309.46758176  .00000028  00000+0  37819-4 0  9993
2 55823  87.9200 319.1073 0002093 102.3734 257.7634 13.20850504131613
ONEWEB-0664             
1 55824U 23029AE  25309.48166805  .00000028  00000+0  37501-4 0  9996
2 55824  87.9181 319.1162 0001513  98.6587 261.4718 13.20771079131614
ONEWEB-0665             
1 55825U 23029AF  25309.98103638  .00000100  00000+0  23641-3 0  9997
2 55825  87.9003 334.2040 0002043 102.5481 257.5877 13.14502009130088
ONEWEB-0666             
1 55826U 23029AG  25309.47534971  .00000000  00000+0 -31935-4 0  9996
2 55826  87.9185 319.1059 0001908  69.6566 290.4772 13.20771811131625
ONEWEB-0667             
1 55827U 23029AH  25309.46902214  .00000050  00000+0  91636-4 0  9993
2 55827  87.9193 319.0371 0001829  98.2418 261.8923 13.20771388131615
ONEWEB-0669             
1 55828U 23029AJ  25309.46430098  .00000022  00000+0  22919-4 0  9997
2 55828  87.9181 319.0758 0001178  84.4059 275.7208 13.20772622131619
ONEWEB-0670             
1 55829U 23029AK  25309.50211535  .00000079  00000+0  17801-3 0  9991
2 55829  87.9003 334.3190 0001679 106.6834 253.4480 13.14504709130040
ONEWEB-0671             
1 55830U 23029AL  25309.55559719  .00000091  00000+0  19522-3 0  9993
2 55830  87.9229 349.4781 0001962 103.1848 256.9504 13.19726983129405
ONEWEB-0672             
1 55831U 23029AM  25309.45957627  .00000086  00000+0  18072-3 0  9996
2 55831  87.9181 319.0574 0001737  83.7110 276.4221 13.20772064131613
ONEWEB-0673             
1 55832U 23029AN  25309.15282711  .00000106  00000+0  23124-3 0  9996
2 55832  87.9244 349.5323 0002013  98.1993 261.9368 13.19725903129358
ONEWEB-0674             
1 55833U 23029AP  25309.54651439 -.00000106  00000+0 -31924-3 0  9996
2 55833  87.8999 334.2903 0001614 108.5612 251.5694 13.14500233130036
ONEWEB-0675             
1 55834U 23029AQ  25309.54769446  .00000151  00000+0  34504-3 0  9990
2 55834  87.9223 349.4895 0001995  88.5377 271.5985 13.19724890129421
ONEWEB-0720             
1 55835U 23029AR  25309.53980407  .00000225  00000+0  52898-3 0  9990
2 55835  87.9225 349.4884 0002184 103.9472 256.1904 13.19725694129345
ONEWEB-0537             
1 56046U 23043A   25309.91551890 -.00000057  00000+0 -18180-3 0  9994
2 56046  87.9008 273.2377 0001916  75.5007 284.6337 13.16595248129589
ONEWEB-0538             
1 56047U 23043B   25309.83319983  .00000075  00000+0  16155-3 0  9999
2 56047  87.8997 273.2608 0002174  79.6827 280.4549 13.16595764129587
ONEWEB-0546             
1 56048U 23043C   25309.59253241  .00000078  00000+0  17106-3 0  9997
2 56048  87.9008 273.2964 0001863  60.9889 299.1428 13.16595805129547
ONEWEB-0547             
1 56049U 23043D   25309.86878537  .00000039  00000+0  62277-4 0  9996
2 56049  87.9173 288.5227 0002048  87.9770 272.1599 13.21826424128725
ONEWEB-0548             
1 56050U 23043E   25309.61776426  .00010627  00000+0  27696-1 0  9992
2 56050  87.8987 273.3044 0001492  92.4006 267.7296 13.16682493129548
ONEWEB-0549             
1 56051U 23043F   25309.93706508 -.00000010  00000+0 -56185-4 0  9997
2 56051  87.9167 288.5245 0002171  87.2638 272.8744 13.21824624128734
ONEWEB-0550             
1 56052U 23043G   25309.92391804  .00000077  00000+0  15550-3 0  9997
2 56052  87.9166 288.5216 0001711  87.6347 272.4983 13.21826502128730
ONEWEB-0551             
1 56053U 23043H   25309.92697494 -.00000047  00000+0 -15788-3 0  9994
2 56053  87.8956 303.7876 0002064  92.8734 267.2632 13.15550504127044
ONEWEB-0552             
1 56054U 23043J   25309.91897038 -.00000256  00000+0 -65138-3 0  9996
2 56054  87.9171 288.5316 0002057  93.1392 266.9978 13.21827063128730
ONEWEB-0553             
1 56055U 23043K   25309.90285773  .00000076  00000+0  16624-3 0  9997
2 56055  87.9000 273.2454 0001698  71.5965 288.5351 13.16596226129590
ONEWEB-0554             
1 56056U 23043L   25309.89019526  .00000074  00000+0  16106-3 0  9990
2 56056  87.8982 273.2670 0001613  88.5397 271.5919 13.16592857129579
